{"type":"FeatureCollection","features":[{"type":"Feature","id":"AZ.BZN","properties":{"code":"BZN","name":"Buzz Northerns Place, Anza, CA, USA","instrumentType":"","source":"Anza Real-Time Broadband Network","network":"AZ","commType":"DIG","location":"","intensity":1.0,"pga":0.0142,"pgv":0.0117,"distance":336.81,"channels":[{"name":"--.HHE","amplitudes":[{"name":"pga","value":0.0142,"units":"%g","flag":"0"},{"name":"pgv","value":0.0117,"units":"cm/s","flag":"0"},{"name":"psa03","value":0.0224,"units":"%g","flag":"0"},{"name":"psa10","value":0.0135,"units":"%g","flag":"0"},{"name":"psa30","value":0.0016,"units":"%g","flag":"0"}]},{"name":"--.HHN","amplitudes":[{"name":"pga","value":0.0118,"units":"%g","flag":"0"},{"name":"pgv","value":0.0114,"units":"cm/s","flag":"0"},{"name":"psa03","value":0.0256,"units":"%g","flag":"0"},{"name":"psa10","value":0.0116,"units":"%g","flag":"0"},{"name":"psa30","value":0.0011,"units":"%g","flag":"0"}]},{"name":"--.HHZ","amplitudes":[{"name":"pga","value":0.0062,"units":"%g","flag":"0"},{"name":"pgv","value":0.0052,"units":"cm/s","flag":"0"},{"name":"psa03","value":0.0139,"units":"%g","flag":"0"},{"name":"psa10","value":0.0104,"units":"%g","flag":"0"},{"name":"psa30","value":0.0009,"units":"%g","flag":"0"}]}]},"geometry":{"type":"Point","coordinates":[-116.66700,33.49150]}},{"type":"Feature","id":"AZ.CPE","properties":{"code":"CPE","name":"Camp Elliot, Miramar, CA, USA","instrumentType":"","source":"Anza Real-Time Broadband Network","network":"AZ","commType":"DIG","location":"","intensity":1.0,"pga":0.0024,"pgv":0.0039,"distance":361.26,"channels":[{"name":"--.HHE","amplitudes":[{"name":"pga","value":0.0024,"units":"%g","flag":"0"},{"name":"pgv","value":0.0039,"units":"cm/s","flag":"0"},{"name":"psa03","value":0.0057,"units":"%g","flag":"0"},{"name":"psa10","value":0.0057,"units":"%g","flag":"0"},{"name":"psa30","value":0.0009,"units":"%g","flag":"0"}]},{"name":"--.HHN","amplitudes":[{"name":"pga","value":0.0023,"units":"%g","flag":"0"},{"name":"pgv","value":0.0016,"units":"cm/s","flag":"0"},{"name":"psa03","value":0.0049,"units":"%g","flag":"0"},{"name":"psa10","value":0.0023,"units":"%g","flag":"0"},{"name":"psa30","value":0.0005,"units":"%g","flag":"0"}]},{"name":"--.HHZ","amplitudes":[{"name":"pga","value":0.0036,"units":"%g","flag":"0"},{"name":"pgv","value":0.0015,"units":"cm/s","flag":"0"},{"name":"psa03","value":0.0043,"units":"%g","flag":"0"},{"name":"psa10","value":0.0029,"units":"%g","flag":"0"},{"name":"psa30","value":0.0007,"units":"%g","flag":"0"}]}]},"geometry":{"type":"Point","coordinates":[-117.10510,32.88890]}},{"type":"Feature","id":"AZ.CRY","properties":{"code":"CRY","name":"Cary Ranch, Anza, CA, USA","instrumentType":"","source":"Anza Real-Time Broadband Network","network":"AZ","commType":"DIG","location":"","intensity":1.0,"pga":0.0064,"pgv":0.0074,"distance":326.43,"channels":[{"name":"--.HHE","amplitudes":[{"name":"pga","value":0.0064,"units":"%g","flag":"0"},{"name":"pgv","value":0.0064,"units":"cm/s","flag":"0"},{"name":"psa03","value":0.0092,"units":"%g","flag":"0"},{"name":"psa10","value":0.0123,"units":"%g","flag":"0"},{"name":"psa30","value":0.0008,"units":"%g","flag":"0"}]},{"name":"--.HHN","amplitudes":[{"name":"pga","value":0.0059,"units":"%g","flag":"0"},{"name":"pgv","value":0.0074,"units":"cm/s","flag":"0"},{"name":"psa03","value":0.0091,"units":"%g","flag":"0"},{"name":"psa10","value":0.0137,"units":"%g","flag":"0"},{"name":"psa30","value":0.0015,"units":"%g","flag":"0"}]},{"name":"--.HHZ","amplitudes":[{"name":"pga","value":0.0028,"units":"%g","flag":"0"},{"name":"pgv","value":0.0038,"units":"cm/s","flag":"0"},{"name":"psa03","value":0.0058,"units":"%g","flag":"0"},{"name":"psa10","value":0.0065,"units":"%g","flag":"0"},{"name":"psa30","value":0.0008,"units":"%g","flag":"0"}]}]},"geometry":{"type":"Point","coordinates":[-116.73730,33.56540]}},{"type":"Feature","id":"AZ.FRD","properties":{"code":"FRD","name":"Ford Ranch, Anza, CA, USA","instrumentType":"","source":"Anza Real-Time Broadband Network","network":"AZ","commType":"DIG","location":"","intensity":1.0,"pga":0.0049,"pgv":0.0063,"distance":340.96,"channels":[{"name":"--.HHE","amplitudes":[{"name":"pga","value":0.0049,"units":"%g","flag":"0"},{"name":"pgv","value":0.0060,"units":"cm/s","flag":"0"},{"name":"psa03","value":0.0064,"units":"%g","flag":"0"},{"name":"psa10","value":0.0093,"units":"%g","flag":"0"},{"name":"psa30","value":0.0025,"units":"%g","flag":"0"}]},{"name":"--.HHN","amplitudes":[{"name":"pga","value":0.0035,"units":"%g","flag":"0"},{"name":"pgv","value":0.0063,"units":"cm/s","flag":"0"},{"name":"psa03","value":0.0076,"units":"%g","flag":"0"},{"name":"psa10","value":0.0097,"units":"%g","flag":"0"},{"name":"psa30","value":0.0020,"units":"%g","flag":"0"}]},{"name":"--.HHZ","amplitudes":[{"name":"pga","value":0.0019,"units":"%g","flag":"0"},{"name":"pgv","value":0.0036,"units":"cm/s","flag":"0"},{"name":"psa03","value":0.0044,"units":"%g","flag":"0"},{"name":"psa10","value":0.0087,"units":"%g","flag":"0"},{"name":"psa30","value":0.0012,"units":"%g","flag":"0"}]}]},"geometry":{"type":"Point","coordinates":[-116.60220,33.49470]}},{"type":"Feature","id":"AZ.KNW","properties":{"code":"KNW","name":"Keenwild Fire Station, Mountain Center, CA, USA","instrumentType":"","source":"Anza Real-Time Broadband Network","network":"AZ","commType":"DIG","location":"","intensity":1.0,"pga":0.0054,"pgv":0.0038,"distance":317.15,"channels":[{"name":"--.HHE","amplitudes":[{"name":"pga","value":0.0054,"units":"%g","flag":"0"},{"name":"pgv","value":0.0035,"units":"cm/s","flag":"0"},{"name":"psa03","value":0.0043,"units":"%g","flag":"0"},{"name":"psa10","value":0.0028,"units":"%g","flag":"0"},{"name":"psa30","value":0.0012,"units":"%g","flag":"0"}]},{"name":"--.HHN","amplitudes":[{"name":"pga","value":0.0053,"units":"%g","flag":"0"},{"name":"pgv","value":0.0038,"units":"cm/s","flag":"0"},{"name":"psa03","value":0.0068,"units":"%g","flag":"0"},{"name":"psa10","value":0.0044,"units":"%g","flag":"0"},{"name":"psa30","value":0.0012,"units":"%g","flag":"0"}]},{"name":"--.HHZ","amplitudes":[{"name":"pga","value":0.0066,"units":"%g","flag":"0"},{"name":"pgv","value":0.0031,"units":"cm/s","flag":"0"},{"name":"psa03","value":0.0055,"units":"%g","flag":"0"},{"name":"psa10","value":0.0045,"units":"%g","flag":"0"},{"name":"psa30","value":0.0011,"units":"%g","flag":"0"}]}]},"geometry":{"type":"Point","coordinates":[-116.71190,33.71410]}},{"type":"Feature","id":"AZ.LVA2","properties":{"code":"LVA2","name":"Lost Valley Scout Camp, CA, USA","instrumentType":"","source":"Anza Real-Time Broadband Network","network":"AZ","commType":"DIG","location":"","intensity":1.0,"pga":0.0059,"pgv":0.0095,"distance":354.64,"channels":[{"name":"--.HHE","amplitudes":[{"name":"pga","value":0.0059,"units":"%g","flag":"0"},{"name":"pgv","value":0.0095,"units":"cm/s","flag":"0"},{"name":"psa03","value":0.0072,"units":"%g","flag":"0"},{"name":"psa10","value":0.0185,"units":"%g","flag":"0"},{"name":"psa30","value":0.0016,"units":"%g","flag":"0"}]},{"name":"--.HHN","amplitudes":[{"name":"pga","value":0.0039,"units":"%g","flag":"0"},{"name":"pgv","value":0.0071,"units":"cm/s","flag":"0"},{"name":"psa03","value":0.0057,"units":"%g","flag":"0"},{"name":"psa10","value":0.0198,"units":"%g","flag":"0"},{"name":"psa30","value":0.0012,"units":"%g","flag":"0"}]},{"name":"--.HHZ","amplitudes":[{"name":"pga","value":0.0018,"units":"%g","flag":"0"},{"name":"pgv","value":0.0028,"units":"cm/s","flag":"0"},{"name":"psa03","value":0.0066,"units":"%g","flag":"0"},{"name":"psa10","value":0.0050,"units":"%g","flag":"0"},{"name":"psa30","value":0.0008,"units":"%g","flag":"0"}]}]},"geometry":{"type":"Point","coordinates":[-116.56150,33.35160]}},{"type":"Feature","id":"AZ.MONP2","properties":{"code":"MONP2","name":"Monument Peak TA Vault, Mt. Laguna, CA, USA","instrumentType":"","source":"Anza Real-Time Broadband Network","network":"AZ","commType":"DIG","location":"","intensity":1.0,"pga":0.0020,"pgv":0.0037,"distance":400.52,"channels":[{"name":"--.HHE","amplitudes":[{"name":"pga","value":0.0020,"units":"%g","flag":"0"},{"name":"pgv","value":0.0037,"units":"cm/s","flag":"0"},{"name":"psa03","value":0.0029,"units":"%g","flag":"0"},{"name":"psa10","value":0.0057,"units":"%g","flag":"0"},{"name":"psa30","value":0.0011,"units":"%g","flag":"0"}]},{"name":"--.HHN","amplitudes":[{"name":"pga","value":0.0015,"units":"%g","flag":"0"},{"name":"pgv","value":0.0019,"units":"cm/s","flag":"0"},{"name":"psa03","value":0.0022,"units":"%g","flag":"0"},{"name":"psa10","value":0.0033,"units":"%g","flag":"0"},{"name":"psa30","value":0.0006,"units":"%g","flag":"0"}]},{"name":"--.HHZ","amplitudes":[{"name":"pga","value":0.0013,"units":"%g","flag":"0"},{"name":"pgv","value":0.0020,"units":"cm/s","flag":"0"},{"name":"psa03","value":0.0019,"units":"%g","flag":"0"},{"name":"psa10","value":0.0029,"units":"%g","flag":"0"},{"name":"psa30","value":0.0004,"units":"%g","flag":"0"}]}]},"geometry":{"type":"Point","coordinates":[-116.42230,32.89200]}},{"type":"Feature","id":"AZ.PFO","properties":{"code":"PFO","name":"Pinyon Flats Observatory, CA, USA","instrumentType":"","source":"Anza Real-Time Broadband Network","network":"AZ","commType":"DIG","location":"","intensity":1.0,"pga":0.0022,"pgv":0.0044,"distance":342.36,"channels":[{"name":"--.HHE","amplitudes":[{"name":"pga","value":0.0022,"units":"%g","flag":"0"},{"name":"pgv","value":0.0033,"units":"cm/s","flag":"0"},{"name":"psa03","value":0.0048,"units":"%g","flag":"0"},{"name":"psa10","value":0.0029,"units":"%g","flag":"0"},{"name":"psa30","value":0.0018,"units":"%g","flag":"0"}]},{"name":"--.HHN","amplitudes":[{"name":"pga","value":0.0019,"units":"%g","flag":"0"},{"name":"pgv","value":0.0044,"units":"cm/s","flag":"0"},{"name":"psa03","value":0.0029,"units":"%g","flag":"0"},{"name":"psa10","value":0.0040,"units":"%g","flag":"0"},{"name":"psa30","value":0.0020,"units":"%g","flag":"0"}]},{"name":"--.HHZ","amplitudes":[{"name":"pga","value":0.0018,"units":"%g","flag":"0"},{"name":"pgv","value":0.0027,"units":"cm/s","flag":"0"},{"name":"psa03","value":0.0037,"units":"%g","flag":"0"},{"name":"psa10","value":0.0039,"units":"%g","flag":"0"},{"name":"psa30","value":0.0015,"units":"%g","flag":"0"}]}]},"geometry":{"type":"Point","coordinates":[-116.45940,33.61170]}},{"type":"Feature","id":"AZ.RDM","properties":{"code":"RDM","name":"Red Mountain, Riverside Co, CA, USA","instrumentType":"","source":"Anza Real-Time Broadband Network","network":"AZ","commType":"DIG","location":"","intensity":1.0,"pga":0.0055,"pgv":0.0057,"distance":314.05,"channels":[{"name":"--.HHE","amplitudes":[{"name":"pga","value":0.0055,"units":"%g","flag":"0"},{"name":"pgv","value":0.0038,"units":"cm/s","flag":"0"},{"name":"psa03","value":0.0095,"units":"%g","flag":"0"},{"name":"psa10","value":0.0050,"units":"%g","flag":"0"},{"name":"psa30","value":0.0010,"units":"%g","flag":"0"}]},{"name":"--.HHN","amplitudes":[{"name":"pga","value":0.0050,"units":"%g","flag":"0"},{"name":"pgv","value":0.0057,"units":"cm/s","flag":"0"},{"name":"psa03","value":0.0076,"units":"%g","flag":"0"},{"name":"psa10","value":0.0067,"units":"%g","flag":"0"},{"name":"psa30","value":0.0011,"units":"%g","flag":"0"}]},{"name":"--.HHZ","amplitudes":[{"name":"pga","value":0.0033,"units":"%g","flag":"0"},{"name":"pgv","value":0.0040,"units":"cm/s","flag":"0"},{"name":"psa03","value":0.0046,"units":"%g","flag":"0"},{"name":"psa10","value":0.0050,"units":"%g","flag":"0"},{"name":"psa30","value":0.0006,"units":"%g","flag":"0"}]}]},"geometry":{"type":"Point","coordinates":[-116.84780,33.63000]}},{"type":"Feature","id":"AZ.SMER","properties":{"code":"SMER","name":"Santa Margarita Ecological Reserve, CA, USA","instrumentType":"","source":"Anza Real-Time Broadband Network","network":"AZ","commType":"DIG","location":"","intensity":1.0,"pga":0.0040,"pgv":0.0044,"distance":307.30,"channels":[{"name":"--.HHE","amplitudes":[{"name":"pga","value":0.0040,"units":"%g","flag":"0"},{"name":"pgv","value":0.0044,"units":"cm/s","flag":"0"},{"name":"psa03","value":0.0098,"units":"%g","flag":"0"},{"name":"psa10","value":0.0052,"units":"%g","flag":"0"},{"name":"psa30","value":0.0011,"units":"%g","flag":"0"}]},{"name":"--.HHN","amplitudes":[{"name":"pga","value":0.0036,"units":"%g","flag":"0"},{"name":"pgv","value":0.0039,"units":"cm/s","flag":"0"},{"name":"psa03","value":0.0072,"units":"%g","flag":"0"},{"name":"psa10","value":0.0056,"units":"%g","flag":"0"},{"name":"psa30","value":0.0009,"units":"%g","flag":"0"}]},{"name":"--.HHZ","amplitudes":[{"name":"pga","value":0.0027,"units":"%g","flag":"0"},{"name":"pgv","value":0.0029,"units":"cm/s","flag":"0"},{"name":"psa03","value":0.0074,"units":"%g","flag":"0"},{"name":"psa10","value":0.0068,"units":"%g","flag":"0"},{"name":"psa30","value":0.0009,"units":"%g","flag":"0"}]}]},"geometry":{"type":"Point","coordinates":[-117.17080,33.45770]}},{"type":"Feature","id":"AZ.SND","properties":{"code":"SND","name":"Jim Saunders Place, Anza, CA, USA","instrumentType":"","source":"Anza Real-Time Broadband Network","network":"AZ","commType":"DIG","location":"","intensity":1.0,"pga":0.0120,"pgv":0.0139,"distance":335.94,"channels":[{"name":"--.HHE","amplitudes":[{"name":"pga","value":0.0094,"units":"%g","flag":"0"},{"name":"pgv","value":0.0121,"units":"cm/s","flag":"0"},{"name":"psa03","value":0.0179,"units":"%g","flag":"0"},{"name":"psa10","value":0.0237,"units":"%g","flag":"0"},{"name":"psa30","value":0.0035,"units":"%g","flag":"0"}]},{"name":"--.HHN","amplitudes":[{"name":"pga","value":0.0120,"units":"%g","flag":"0"},{"name":"pgv","value":0.0139,"units":"cm/s","flag":"0"},{"name":"psa03","value":0.0172,"units":"%g","flag":"0"},{"name":"psa10","value":0.0235,"units":"%g","flag":"0"},{"name":"psa30","value":0.0024,"units":"%g","flag":"0"}]},{"name":"--.HHZ","amplitudes":[{"name":"pga","value":0.0062,"units":"%g","flag":"0"},{"name":"pgv","value":0.0106,"units":"cm/s","flag":"0"},{"name":"psa03","value":0.0101,"units":"%g","flag":"0"},{"name":"psa10","value":0.0115,"units":"%g","flag":"0"},{"name":"psa30","value":0.0025,"units":"%g","flag":"0"}]}]},"geometry":{"type":"Point","coordinates":[-116.61290,33.55190]}},{"type":"Feature","id":"AZ.SOL","properties":{"code":"SOL","name":"Mt. Soledad, San Diego, CA","instrumentType":"","source":"Anza Real-Time Broadband Network","network":"AZ","commType":"DIG","location":"","intensity":1.0,"pga":0.0062,"pgv":0.0067,"distance":358.33,"channels":[{"name":"--.HHE","amplitudes":[{"name":"pga","value":0.0055,"units":"%g","flag":"0"},{"name":"pgv","value":0.0063,"units":"cm/s","flag":"0"},{"name":"psa03","value":0.0088,"units":"%g","flag":"0"},{"name":"psa10","value":0.0133,"units":"%g","flag":"0"},{"name":"psa30","value":0.0019,"units":"%g","flag":"0"}]},{"name":"--.HHN","amplitudes":[{"name":"pga","value":0.0062,"units":"%g","flag":"0"},{"name":"pgv","value":0.0067,"units":"cm/s","flag":"0"},{"name":"psa03","value":0.0111,"units":"%g","flag":"0"},{"name":"psa10","value":0.0090,"units":"%g","flag":"0"},{"name":"psa30","value":0.0021,"units":"%g","flag":"0"}]},{"name":"--.HHZ","amplitudes":[{"name":"pga","value":0.0051,"units":"%g","flag":"0"},{"name":"pgv","value":0.0052,"units":"cm/s","flag":"0"},{"name":"psa03","value":0.0068,"units":"%g","flag":"0"},{"name":"psa10","value":0.0061,"units":"%g","flag":"0"},{"name":"psa30","value":0.0010,"units":"%g","flag":"0"}]}]},"geometry":{"type":"Point","coordinates":[-117.24800,32.84100]}},{"type":"Feature","id":"AZ.TRO","properties":{"code":"TRO","name":"Toro Peak, Riverside Co, CA, USA","instrumentType":"","source":"Anza Real-Time Broadband Network","network":"AZ","commType":"DIG","location":"","intensity":1.0,"pga":0.0128,"pgv":0.0113,"distance":351.07,"channels":[{"name":"--.HHE","amplitudes":[{"name":"pga","value":0.0092,"units":"%g","flag":"0"},{"name":"pgv","value":0.0112,"units":"cm/s","flag":"0"},{"name":"psa03","value":0.0267,"units":"%g","flag":"0"},{"name":"psa10","value":0.0146,"units":"%g","flag":"0"},{"name":"psa30","value":0.0041,"units":"%g","flag":"0"}]},{"name":"--.HHN","amplitudes":[{"name":"pga","value":0.0128,"units":"%g","flag":"0"},{"name":"pgv","value":0.0113,"units":"cm/s","flag":"0"},{"name":"psa03","value":0.0228,"units":"%g","flag":"0"},{"name":"psa10","value":0.0194,"units":"%g","flag":"0"},{"name":"psa30","value":0.0029,"units":"%g","flag":"0"}]},{"name":"--.HHZ","amplitudes":[{"name":"pga","value":0.0039,"units":"%g","flag":"0"},{"name":"pgv","value":0.0048,"units":"cm/s","flag":"0"},{"name":"psa03","value":0.0067,"units":"%g","flag":"0"},{"name":"psa10","value":0.0076,"units":"%g","flag":"0"},{"name":"psa30","value":0.0017,"units":"%g","flag":"0"}]}]},"geometry":{"type":"Point","coordinates":[-116.42570,33.52340]}},{"type":"Feature","id":"AZ.WMC","properties":{"code":"WMC","name":"Walmic Ranch, Anza, CA, USA","instrumentType":"","source":"Anza Real-Time Broadband Network","network":"AZ","commType":"DIG","location":"","intensity":1.0,"pga":0.0074,"pgv":0.0073,"distance":330.08,"channels":[{"name":"--.HHE","amplitudes":[{"name":"pga","value":0.0061,"units":"%g","flag":"0"},{"name":"pgv","value":0.0073,"units":"cm/s","flag":"0"},{"name":"psa03","value":0.0168,"units":"%g","flag":"0"},{"name":"psa10","value":0.0108,"units":"%g","flag":"0"},{"name":"psa30","value":0.0020,"units":"%g","flag":"0"}]},{"name":"--.HHN","amplitudes":[{"name":"pga","value":0.0074,"units":"%g","flag":"0"},{"name":"pgv","value":0.0061,"units":"cm/s","flag":"0"},{"name":"psa03","value":0.0138,"units":"%g","flag":"0"},{"name":"psa10","value":0.0115,"units":"%g","flag":"0"},{"name":"psa30","value":0.0015,"units":"%g","flag":"0"}]},{"name":"--.HHZ","amplitudes":[{"name":"pga","value":0.0032,"units":"%g","flag":"0"},{"name":"pgv","value":0.0039,"units":"cm/s","flag":"0"},{"name":"psa03","value":0.0112,"units":"%g","flag":"0"},{"name":"psa10","value":0.0097,"units":"%g","flag":"0"},{"name":"psa30","value":0.0013,"units":"%g","flag":"0"}]}]},"geometry":{"type":"Point","coordinates":[-116.67470,33.57360]}},{"type":"Feature","id":"BC.CBX","properties":{"code":"CBX","name":"CERRO BOLA MEX","instrumentType":"","source":"Red Sismica del Noroeste de Mexico","network":"BC","commType":"DIG","location":"","intensity":1.0,"pga":0.0013,"pgv":0.0015,"distance":437.46,"channels":[{"name":"--.HHE","amplitudes":[{"name":"pga","value":0.0013,"units":"%g","flag":"0"},{"name":"pgv","value":0.0015,"units":"cm/s","flag":"0"},{"name":"psa03","value":0.0023,"units":"%g","flag":"0"},{"name":"psa10","value":0.0031,"units":"%g","flag":"0"},{"name":"psa30","value":0.0002,"units":"%g","flag":"0"}]},{"name":"--.HHN","amplitudes":[{"name":"pga","value":0.0011,"units":"%g","flag":"0"},{"name":"pgv","value":0.0010,"units":"cm/s","flag":"0"},{"name":"psa03","value":0.0027,"units":"%g","flag":"0"},{"name":"psa10","value":0.0025,"units":"%g","flag":"0"},{"name":"psa30","value":0.0001,"units":"%g","flag":"0"}]},{"name":"--.HHZ","amplitudes":[{"name":"pga","value":0.0006,"units":"%g","flag":"0"},{"name":"pgv","value":0.0004,"units":"cm/s","flag":"0"},{"name":"psa03","value":0.0019,"units":"%g","flag":"0"},{"name":"psa10","value":0.0012,"units":"%g","flag":"0"},{"name":"psa30","value":0.0000,"units":"%g","flag":"0"}]}]},"geometry":{"type":"Point","coordinates":[-116.66360,32.31310]}},{"type":"Feature","id":"BC.CCX","properties":{"code":"CCX","name":"CICESE CCX","instrumentType":"","source":"Red Sismica del Noroeste de Mexico","network":"BC","commType":"DIG","location":"CICESE Earth Science building basement","intensity":1.0,"pga":0.0065,"pgv":0.0010,"distance":479.22,"channels":[{"name":"--.HHE","amplitudes":[{"name":"pga","value":0.0065,"units":"%g","flag":"0"},{"name":"pgv","value":0.0010,"units":"cm/s","flag":"0"},{"name":"psa03","value":0.0024,"units":"%g","flag":"0"},{"name":"psa10","value":0.0017,"units":"%g","flag":"0"},{"name":"psa30","value":0.0003,"units":"%g","flag":"0"}]},{"name":"--.HHN","amplitudes":[{"name":"pga","value":0.0043,"units":"%g","flag":"0"},{"name":"p