<q:quakeml xmlns="https://quakeml.org/xmlns/bed/1.2" xmlns:catalog="https://anss.org/xmlns/catalog/0.1" xmlns:anss="https://anss.org/xmlns/event/0.1" xmlns:q="https://quakeml.org/xmlns/quakeml/1.2"><eventParameters publicID="quakeml:service.scedc.caltech.edu/fdsnws/event/1/query?eventid=37528064"><event publicID="quakeml:service.scedc.caltech.edu/fdsnws/event/1/query?eventid=37528064" catalog:datasource="ci" catalog:dataid="ci37528064" catalog:eventsource="ci" catalog:eventid="37528064"><description><text>6km SSW of Wasco, California</text><type>earthquake name</type></description><amplitude publicID="quakeml:service.scedc.caltech.edu/fdsnws/event/1/query?ampid=742004464"><genericAmplitude><value>0.625567741394043</value></genericAmplitude><type>AML</type><category>point</category><unit>m</unit><waveformID networkCode="BK" stationCode="THIS" channelCode="HHE" locationCode="00"></waveformID><magnitudeHint>ML</magnitudeHint><evaluationMode>automatic</evaluationMode><evaluationStatus>preliminary</evaluationStatus></amplitude><amplitude publicID="quakeml:service.scedc.caltech.edu/fdsnws/event/1/query?ampid=742004472"><genericAmplitude><value>0.513546562194824</value></genericAmplitude><type>AML</type><category>point</category><unit>m</unit><waveformID networkCode="BK" stationCode="THIS" channelCode="HHN" locationCode="00"></waveformID><magnitudeHint>ML</magnitudeHint><evaluationMode>automatic</evaluationMode><evaluationStatus>preliminary</evaluationStatus></amplitude><amplitude publicID="quakeml:service.scedc.caltech.edu/fdsnws/event/1/query?ampid=742004480"><genericAmplitude><value>2.32802230834961</value></genericAmplitude><type>AML</type><category>point</category><unit>m</unit><pickID>quakeml:service.scedc.caltech.edu/fdsnws/event/1/query?arid=240893141</pickID><waveformID networkCode="CE" stationCode="35078" channelCode="HNE" locationCode="10"></waveformID><magnitudeHint>ML</magnitudeHint><evaluationMode>automatic</evaluationMode><evaluationStatus>preliminary</evaluationStatus></amplitude><amplitude publicID="quakeml:service.scedc.caltech.edu/fdsnws/event/1/query?ampid=742004488"><genericAmplitude><value>4.20592895507813</value></genericAmplitude><type>AML</type><category>point</category><unit>m</unit><waveformID networkCode="CE" stationCode="35078" channelCode="HNN" locationCode="10"></waveformID><magnitudeHint>ML</magnitudeHint><evaluationMode>automatic</evaluationMode><evaluationStatus>preliminary</evaluationStatus></amplitude><amplitude publicID="quakeml:service.scedc.caltech.edu/fdsnws/event/1/query?ampid=742004496"><genericAmplitude><value>13.3090893554687</value></genericAmplitude><type>AML</type><category>point</category><unit>m</unit><waveformID networkCode="CE" stationCode="35342" channelCode="HNE" locationCode="10"></waveformID><magnitudeHint>ML</magnitudeHint><evaluationMode>automatic</evaluationMode><evaluationStatus>preliminary</evaluationStatus></amplitude><amplitude publicID="quakeml:service.scedc.caltech.edu/fdsnws/event/1/query?ampid=742004504"><genericAmplitude><value>8.21245849609375</value></genericAmplitude><type>AML</type><category>point</category><unit>m</unit><pickID>quakeml:service.scedc.caltech.edu/fdsnws/event/1/query?arid=240893125</pickID><waveformID networkCode="CE" stationCode="35342" channelCode="HNN" locationCode="10"></waveformID><magnitudeHint>ML</magnitudeHint><evaluationMode>automatic</evaluationMode><evaluationStatus>preliminary</evaluationStatus></amplitude><amplitude publicID="quakeml:service.scedc.caltech.edu/fdsnws/event/1/query?ampid=742004512"><genericAmplitude><value>0.804994659423828</value></genericAmplitude><type>AML</type><category>point</category><unit>m</unit><waveformID networkCode="CE" stationCode="36014" channelCode="HNE" locationCode="10"></waveformID><magnitudeHint>ML</magnitudeHint><evaluationMode>automatic</evaluationMode><evaluationStatus>preliminary</evaluationStatus></amplitude><amplitude publicID="quakeml:service.scedc.caltech.edu/fdsnws/event/1/query?ampid=742004520"><genericAmplitude><value>1.98411056518555</value></genericAmplitude><type>AML</type><category>point</category><unit>m</unit><pickID>quakeml:service.scedc.caltech.edu/fdsnws/event/1/query?arid=240893205</pickID><waveformID networkCode="CE" stationCode="36014" channelCode="HNN" locationCode="10"></waveformID><magnitudeHint>ML</magnitudeHint><evaluationMode>automatic</evaluationMode><evaluationStatus>preliminary</evaluationStatus></amplitude><amplitude publicID="quakeml:service.scedc.caltech.edu/fdsnws/event/1/query?ampid=742004528"><genericAmplitude><value>0.0998717308044434</value></genericAmplitude><type>AML</type><category>point</category><unit>m</unit><waveformID networkCode="CI" stationCode="ARV" channelCode="HHE" locationCode=""></waveformID><magnitudeHint>ML</magnitudeHint><evaluationMode>automatic</evaluationMode><evaluationStatus>preliminary</evaluationStatus></amplitude><amplitude publicID="quakeml:service.scedc.caltech.edu/fdsnws/event/1/query?ampid=742004536"><genericAmplitude><value>0.211683197021484</value></genericAmplitude><type>AML</type><category>point</category><unit>m</unit><pickID>quakeml:service.scedc.caltech.edu/fdsnws/event/1/query?arid=240893237</pickID><waveformID networkCode="CI" stationCode="ARV" channelCode="HHN" locationCode=""></waveformID><magnitudeHint>ML</magnitudeHint><evaluationMode>automatic</evaluationMode><evaluationStatus>preliminary</evaluationStatus></amplitude><amplitude publicID="quakeml:service.scedc.caltech.edu/fdsnws/event/1/query?ampid=742004544"><genericAmplitude><value>0.093286657333374</value></genericAmplitude><type>AML</type><category>point</category><unit>m</unit><waveformID networkCode="CI" stationCode="ARV" channelCode="HNE" locationCode=""></waveformID><magnitudeHint>ML</magnitudeHint><evaluationMode>automatic</evaluationMode><evaluationStatus>preliminary</evaluationStatus></amplitude><amplitude publicID="quakeml:service.scedc.caltech.edu/fdsnws/event/1/query?ampid=742004552"><genericAmplitude><value>0.213952159881592</value></genericAmplitude><type>AML</type><category>point</category><unit>m</unit><waveformID networkCode="CI" stationCode="ARV" channelCode="HNN" locationCode=""></waveformID><magnitudeHint>ML</magnitudeHint><evaluationMode>automatic</evaluationMode><evaluationStatus>preliminary</evaluationStatus></amplitude><amplitude publicID="quakeml:service.scedc.caltech.edu/fdsnws/event/1/query?ampid=742004576"><genericAmplitude><value>1.75851165771484</value></genericAmplitude><type>AML</type><category>point</category><unit>m</unit><waveformID networkCode="CI" stationCode="BAK" channelCode="HNE" locationCode=""></waveformID><magnitudeHint>ML</magnitudeHint><evaluationMode>automatic</evaluationMode><evaluationStatus>preliminary</evaluationStatus></amplitude><amplitude publicID="quakeml:service.scedc.caltech.edu/fdsnws/event/1/query?ampid=742004584"><genericAmplitude><value>1.83786972045898</value></genericAmplitude><type>AML</type><category>point</category><unit>m</unit><waveformID networkCode="CI" stationCode="BAK" channelCode="HNN" locationCode=""></waveformID><magnitudeHint>ML</magnitudeHint><evaluationMode>automatic</evaluationMode><evaluationStatus>preliminary</evaluationStatus></amplitude><amplitude publicID="quakeml:service.scedc.caltech.edu/fdsnws/event/1/query?ampid=742004592"><genericAmplitude><value>0.43784481048584</value></genericAmplitude><type>AML</type><category>point</category><unit>m</unit><pickID>quakeml:service.scedc.caltech.edu/fdsnws/event/1/query?arid=240893221</pickID><waveformID networkCode="CI" stationCode="BCW" channelCode="HHE" locationCode=""></waveformID><magnitudeHint>ML</magnitudeHint><evaluationMode>automatic</evaluationMode><evaluationStatus>preliminary</evaluationStatus></amplitude><amplitude publicID="quakeml:service.scedc.caltech.edu/fdsnws/event/1/query?ampid=742004600"><genericAmplitude><value>0.386542854309082</value></genericAmplitude><type>AML</type><category>point</category><unit>m</unit><waveformID networkCode="CI" stationCode="BCW" channelCode="HHN" locationCode=""></waveformID><magnitudeHint>ML</magnitudeHint><evaluationMode>automatic</evaluationMode><evaluationStatus>preliminary</evaluationStatus></amplitude><amplitude publicID="quakeml:service.scedc.caltech.edu/fdsnws/event/1/query?ampid=742004608"><genericAmplitude><value>0.436758117675781</value></genericAmplitude><type>AML</type><category>point</category><unit>m</unit><waveformID networkCode="CI" stationCode="BCW" channelCode="HNE" locationCode=""></waveformID><magnitudeHint>ML</magnitudeHint><evaluationMode>automatic</evaluationMode><evaluationStatus>preliminary</evaluationStatus></amplitude><amplitude publicID="quakeml:service.scedc.caltech.edu/fdsnws/event/1/query?ampid=742004616"><genericAmplitude><value>0.382180709838867</value></genericAmplitude><type>AML</type><category>point</category><unit>m</unit><waveformID networkCode="CI" stationCode="BCW" channelCode="HNN" locationCode=""></waveformID><magnitudeHint>ML</magnitudeHint><evaluationMode>automatic</evaluationMode><evaluationStatus>preliminary</evaluationStatus></amplitude><amplitude publicID="quakeml:service.scedc.caltech.edu/fdsnws/event/1/query?ampid=742004640"><genericAmplitude><value>2.38345748901367</value></genericAmplitude><type>AML</type><category>point</category><unit>m</unit><waveformID networkCode="CI" stationCode="CAR" channelCode="HNE" locationCode=""></waveformID><magnitudeHint>ML</magnitudeHint><evaluationMode>automatic</evaluationMode><evaluationStatus>preliminary</evaluationStatus></amplitude><amplitude publicID="quakeml:service.scedc.caltech.edu/fdsnws/event/1/query?ampid=742004648"><genericAmplitude><value>3.47517700195313</value></genericAmplitude><type>AML</type><category>point</category><unit>m</unit><waveformID networkCode="CI" stationCode="CAR" channelCode="HNN" locationCode=""></waveformID><magnitudeHint>ML</magnitudeHint><evaluationMode>automatic</evaluationMode><evaluationStatus>preliminary</evaluationStatus></amplitude><amplitude publicID="quakeml:service.scedc.caltech.edu/fdsnws/event/1/query?ampid=742004672"><genericAmplitude><value>3.40581665039063</value></genericAmplitude><type>AML</type><category>point</category><unit>m</unit><waveformID networkCode="CI" stationCode="CRG" channelCode="HNE" locationCode=""></waveformID><magnitudeHint>ML</magnitudeHint><evaluationMode>automatic</evaluationMode><evaluationStatus>preliminary</evaluationStatus></amplitude><amplitude publicID="quakeml:service.scedc.caltech.edu/fdsnws/event/1/query?ampid=742004680"><genericAmplitude><value>5.14805297851562</value></genericAmplitude><type>AML</type><category>point</category><unit>m</unit><waveformID networkCode="CI" stationCode="CRG" channelCode="HNN" locationCode=""></waveformID><magnitudeHint>ML</magnitudeHint><evaluationMode>automatic</evaluationMode><evaluationStatus>preliminary</evaluationStatus></amplitude><amplitude publicID="quakeml:service.scedc.caltech.edu/fdsnws/event/1/query?ampid=742004688"><genericAmplitude><value>0.962484664916992</value></genericAmplitude><type>AML</type><category>point</category><unit>m</unit><waveformID networkCode="CI" stationCode="CVW" channelCode="HNE" locationCode=""></waveformID><magnitudeHint>ML</magnitudeHint><evaluationMode>automatic</evaluationMode><evaluationStatus>preliminary</evaluationStatus></amplitude><amplitude publicID="quakeml:service.scedc.caltech.edu/fdsnws/event/1/query?ampid=742004696"><genericAmplitude><value>0.458423805236816</value></genericAmplitude><type>AML</type><category>point</category><unit>m</unit><pickID>quakeml:service.scedc.caltech.edu/fdsnws/event/1/query?arid=240893333</pickID><waveformID networkCode="CI" stationCode="CVW" channelCode="HNN" locationCode=""></waveformID><magnitudeHint>ML</magnitudeHint><evaluationMode>automatic</evaluationMode><evaluationStatus>preliminary</evaluationStatus></amplitude><amplitude publicID="quakeml:service.scedc.caltech.edu/fdsnws/event/1/query?ampid=742004704"><genericAmplitude><value>0.451116333007813</value></genericAmplitude><type>AML</type><category>point</category><unit>m</unit><pickID>quakeml:service.scedc.caltech.edu/fdsnws/event/1/query?arid=240893077</pickID><waveformID networkCode="CI" stationCode="MAG" channelCode="HNE" locationCode=""></waveformID><magnitudeHint>ML</magnitudeHint><evaluationMode>automatic</evaluationMode><evaluationStatus>preliminary</evaluationStatus></amplitude><amplitude publicID="quakeml:service.scedc.caltech.edu/fdsnws/event/1/query?ampid=742004712"><genericAmplitude><value>0.660386810302734</value></genericAmplitude><type>AML</type><category>point</category><unit>m</unit><waveformID networkCode="CI" stationCode="MAG" channelCode="HNN" locationCode=""></waveformID><magnitudeHint>ML</magnitudeHint><evaluationMode>automatic</evaluationMode><evaluationStatus>preliminary</evaluationStatus></amplitude><amplitude publicID="quakeml:service.scedc.caltech.edu/fdsnws/event/1/query?ampid=742004720"><genericAmplitude><value>0.975790863037109</value></genericAmplitude><type>AML</type><category>point</category><unit>m</unit><waveformID networkCode="CI" stationCode="SMM" channelCode="HHE" locationCode=""></waveformID><magnitudeHint>ML</magnitudeHint><evaluationMode>automatic</evaluationMode><evaluationStatus>preliminary</evaluationStatus></amplitude><amplitude publicID="quakeml:service.scedc.caltech.edu/fdsnws/event/1/query?ampid=742004736"><genericAmplitude><value>0.980726776123047</value></genericAmplitude><type>AML</type><category>point</category><unit>m</unit><waveformID networkCode="CI" stationCode="SMM" channelCode="HNE" locationCode=""></waveformID><magnitudeHint>ML</magnitudeHint><evaluationMode>automatic</evaluationMode><evaluationStatus>preliminary</evaluationStatus></amplitude><amplitude publicID="quakeml:service.scedc.caltech.edu/fdsnws/event/1/query?ampid=742004744"><genericAmplitude><value>1.44896011352539</value></genericAmplitude><type>AML</type><category>point</category><unit>m</unit><waveformID networkCode="CI" stationCode="SMM" channelCode="HNN" locationCode=""></waveformID><magnitudeHint>ML</magnitudeHint><evaluationMode>automatic</evaluationMode><evaluationStatus>preliminary</evaluationStatus></amplitude><amplitude publicID="quakeml:service.scedc.caltech.edu/fdsnws/event/1/query?ampid=742004760"><genericAmplitude><value>0.679931488037109</value></genericAmplitude><type>AML</type><category>point</category><unit>m</unit><waveformID networkCode="CI" stationCode="TFT" channelCode="HHN" locationCode=""></waveformID><magnitudeHint>ML</magnitudeHint><evaluationMode>automatic</evaluationMode><evaluationStatus>preliminary</evaluationStatus></amplitude><amplitude publicID="quakeml:service.scedc.caltech.edu/fdsnws/event/1/query?ampid=742004768"><genericAmplitude><value>1.08132347106934</value></genericAmplitude><type>AML</type><category>point</category><unit>m</unit><waveformID networkCode="CI" stationCode="TFT" channelCode="HNE" locationCode=""></waveformID><magnitudeHint>ML</magnitudeHint><evaluationMode>automatic</evaluationMode><evaluationStatus>preliminary</evaluationStatus></amplitude><amplitude publicID="quakeml:service.scedc.caltech.edu/fdsnws/event/1/query?ampid=742004776"><genericAmplitude><value>0.628902397155762</value></genericAmplitude><type>AML</type><category>point</category><unit>m</unit><waveformID networkCode="CI" stationCode="TFT" channelCode="HNN" locationCode=""></waveformID><magnitudeHint>ML</magnitudeHint><evaluationMode>automatic</evaluationMode><evaluationStatus>preliminary</evaluationStatus></amplitude><amplitude publicID="quakeml:service.scedc.caltech.edu/fdsnws/event/1/query?ampid=742004784"><genericAmplitude><value>0.165198726654053</value></genericAmplitude><type>AML</type><category>point</category><unit>m</unit><pickID>quakeml:service.scedc.caltech.edu/fdsnws/event/1/query?arid=240893357</pickID><waveformID networkCode="CI" stationCode="TJR" channelCode="HNE" locationCode=""></waveformID><magnitudeHint>ML</magnitudeHint><evaluationMode>automatic</evaluationMode><evaluationStatus>preliminary</evaluationStatus></amplitude><amplitude publicID="quakeml:service.scedc.caltech.edu/fdsnws/event/1/query?ampid=742004792"><genericAmplitude><value>0.160964183807373</value></genericAmplitude><type>AML</type><category>point</category><unit>m</unit><waveformID networkCode="CI" stationCode="TJR" channelCode="HNN" locationCode=""></waveformID><magnitudeHint>ML</magnitudeHint><evaluationMode>automatic</evaluationMode><evaluationStatus>preliminary</evaluationStatus></amplitude><amplitude publicID="quakeml:service.scedc.caltech.edu/fdsnws/event/1/query?ampid=742004816"><genericAmplitude><value>1.54588562011719</value></genericAmplitude><type>AML</type><category>point</category><unit>m</unit><waveformID networkCode="CI" stationCode="VES" channelCode="HNE" locationCode=""></waveformID><magnitudeHint>ML</magnitudeHint><evaluationMode>automatic</evaluationMode><evaluationStatus>preliminary</evaluationStatus></amplitude><amplitude publicID="quakeml:service.scedc.caltech.edu/fdsnws/event/1/query?ampid=742004824"><genericAmplitude><value>1.13299797058105</value></genericAmplitude><type>AML</type><category>point</category><unit>m</unit><waveformID networkCode="CI" stationCode="VES" channelCode="HNN" locationCode=""></waveformID><magnitudeHint>ML</magnitudeHint><evaluationMode>automatic</evaluationMode><evaluationStatus>preliminary</evaluationStatus></amplitude><amplitude publicID="quakeml:service.scedc.caltech.edu/fdsnws/event/1/query?ampid=742004832"><genericAmplitude><value>0.125722627639771</value></genericAmplitude><type>AML</type><category>point</category><unit>m</unit><waveformID networkCode="CI" stationCode="WAS2" channelCode="HHE" locationCode=""></waveformID><magnitudeHint>ML</magnitudeHint><evaluationMode>automatic</evaluationMode><evaluationStatus>preliminary</evaluationStatus></amplitude><amplitude publicID="quakeml:service.scedc.caltech.edu/fdsnws/event/1/query?ampid=742004840"><genericAmplitude><value>0.282630405426025</value></genericAmplitude><type>AML</type><category>point</category><unit>m</unit><pickID>quakeml:service.scedc.caltech.edu/fdsnws/event/1/query?arid=240893293</pickID><waveformID networkCode="CI" stationCode="WAS2" channelCode="HHN" locationCode=""></waveformID><magnitudeHint>ML</magnitudeHint><evaluationMode>automatic</evaluationMode><evaluationStatus>preliminary</evaluationStatus></amplitude><amplitude publicID="quakeml:service.scedc.caltech.edu/fdsnws/event/1/query?ampid=742004848"><genericAmplitude><value>0.124094572067261</value></genericAmplitude><type>AML</type><category>point</category><unit>m</unit><waveformID networkCode="CI" stationCode="WAS2" channelCode="HNE" locationCode=""></waveformID><magnitudeHint>ML</magnitudeHint><evaluationMode>automatic</evaluationMode><evaluationStatus>preliminary</evaluationStatus></amplitude><amplitude publicID="quakeml:service.scedc.caltech.edu/fdsnws/event/1/query?ampid=742004856"><genericAmplitude><value>0.280148754119873</value></genericAmplitude><type>AML</type><category>point</category><unit>m</unit><waveformID networkCode="CI" stationCode="WAS2" channelCode="HNN" locationCode=""></waveformID><magnitudeHint>ML</magnitudeHint><evaluationMode>automatic</evaluationMode><evaluationStatus>preliminary</evaluationStatus></amplitude><magnitude publicID="quakeml:service.scedc.caltech.edu/fdsnws/event/1/query?magnitudeid=108303797"><stationMagnitudeContribution><stationMagnitudeID>quakeml:service.scedc.caltech.edu/fdsnws/event/1/query?assocammid=742004552</stationMagnitudeID><residual>-0.43</residual><weight>0</weight></stationMagnitudeContribution><stationMagnitudeContribution><stationMagnitudeID>quakeml:service.scedc.caltech.edu/fdsnws/event/1/query?assocammid=742004536</stationMagnitudeID><residual>-0.35</residual><weight>1</weight></stationMagnitudeContribution><stationMagnitudeContribution><stationMagnitudeID>quakeml:service.scedc.caltech.edu/fdsnws/event/1/query?assocammid=742004848</stationMagnitudeID><residual>-0.43</residual><weight>0</weight></statio