<?xml version="1.0" encoding="UTF-8" standalone="no" ?>
<q:quakeml xmlns:q="http://quakeml.org/xmlns/quakeml/1.2" xmlns="http://quakeml.org/xmlns/bed/1.2" xmlns:catalog="http://anss.org/xmlns/catalog/0.1" xmlns:tensor="http://anss.org/xmlns/tensor/0.1">

  <eventParameters xmlns="http://quakeml.org/xmlns/bed/1.2" publicID="quakeml:us.anss.org/eventparameters/c000njrq/1399564314">
    <comment>
      <text>HYDRA - us</text>
    </comment>
    <event catalog:dataid="usc000njrq" catalog:datasource="us" catalog:eventid="c000njrq" catalog:eventsource="us" publicID="quakeml:us.anss.org/event/c000njrq">
      <description>
        <text>NICOBAR ISLANDS, INDIA REGION</text>
        <type>Flinn-Engdahl region</type>
      </description>
      <description>
        <text>114 km (70 miles) ESE of Mohean, India (pop 0)
231 km (143 miles) NNW of Sabang, Indonesia (pop 24519)
265 km (164 miles) NNW of Banda Aceh, Indonesia (pop 250757)
316 km (196 miles) NW of Sigli, Indonesia (pop 17504)
948 km (589 miles) SW of Bangkok, Thailand (pop 5104476)
</text>
        <type>nearest cities</type>
      </description>
      <comment>
        <text>Felt at Banda Aceh, Indonesia. Also felt at Kathu, Thailand.
</text>
      </comment>
      <focalMechanism catalog:dataid="us_c000njrq_mwc" catalog:datasource="us" publicID="quakeml:us.anss.org/focalmechanism/c000njrq/mwc">
        <waveformID channelCode="LHZ" locationCode="00" networkCode="IU" stationCode="BILL" tensor:MTChanOffset="0" tensor:MTChanWaveformFit="0.17" tensor:MTChanWeight="0.041227"/>
        <waveformID channelCode="BHE" locationCode="00" networkCode="GT" stationCode="DBIC" tensor:MTChanOffset="0" tensor:MTChanWaveformFit="0.65" tensor:MTChanWeight="0.54848"/>
        <waveformID channelCode="BHN" locationCode="00" networkCode="GT" stationCode="DBIC" tensor:MTChanOffset="0" tensor:MTChanWaveformFit="0.85" tensor:MTChanWeight="0.791624"/>
        <waveformID channelCode="BHZ" locationCode="00" networkCode="GT" stationCode="DBIC" tensor:MTChanOffset="0" tensor:MTChanWaveformFit="0.87" tensor:MTChanWeight="0.425672"/>
        <waveformID channelCode="LHZ" locationCode="00" networkCode="IU" stationCode="GNI" tensor:MTChanOffset="0" tensor:MTChanWaveformFit="0.97" tensor:MTChanWeight="0.417383"/>
        <waveformID channelCode="LHZ" locationCode="00" networkCode="IU" stationCode="HNR" tensor:MTChanOffset="0" tensor:MTChanWaveformFit="0.95" tensor:MTChanWeight="0.315533"/>
        <waveformID channelCode="BHZ" locationCode="00" networkCode="GT" stationCode="LPAZ" tensor:MTChanOffset="0" tensor:MTChanWaveformFit="-0.27" tensor:MTChanWeight="5.51979"/>
        <waveformID channelCode="LHZ" locationCode="00" networkCode="II" stationCode="OBN" tensor:MTChanOffset="0" tensor:MTChanWaveformFit="0.77" tensor:MTChanWeight="5.05513"/>
        <waveformID channelCode="LHZ" locationCode="00" networkCode="IU" stationCode="TSUM" tensor:MTChanOffset="0" tensor:MTChanWaveformFit="0.07" tensor:MTChanWeight="0.15146"/>
        <waveformID channelCode="BH1" locationCode="00" networkCode="IU" stationCode="ADK" tensor:MTChanOffset="0" tensor:MTChanWaveformFit="0.86" tensor:MTChanWeight="0.315718"/>
        <waveformID channelCode="BH2" locationCode="00" networkCode="IU" stationCode="ADK" tensor:MTChanOffset="0" tensor:MTChanWaveformFit="0.76" tensor:MTChanWeight="1.09377"/>
        <waveformID channelCode="BHZ" locationCode="00" networkCode="IU" stationCode="ADK" tensor:MTChanOffset="0" tensor:MTChanWaveformFit="0.96" tensor:MTChanWeight="1.12981"/>
        <waveformID channelCode="BHZ" locationCode="00" networkCode="IU" stationCode="AFI" tensor:MTChanOffset="0" tensor:MTChanWaveformFit="0.87" tensor:MTChanWeight="0.436787"/>
        <waveformID channelCode="BH1" locationCode="00" networkCode="IU" stationCode="ANMO" tensor:MTChanOffset="0" tensor:MTChanWaveformFit="0.88" tensor:MTChanWeight="0.750129"/>
        <waveformID channelCode="BH2" locationCode="00" networkCode="IU" stationCode="ANMO" tensor:MTChanOffset="0" tensor:MTChanWaveformFit="-0.07" tensor:MTChanWeight="1.44768"/>
        <waveformID channelCode="BHZ" locationCode="00" networkCode="IU" stationCode="ANMO" tensor:MTChanOffset="0" tensor:MTChanWaveformFit="0.9" tensor:MTChanWeight="0.517582"/>
        <waveformID channelCode="BHZ" locationCode="00" networkCode="IU" stationCode="ANTO" tensor:MTChanOffset="0" tensor:MTChanWaveformFit="0.96" tensor:MTChanWeight="0.37366"/>
        <waveformID channelCode="BHZ" locationCode="--" networkCode="MN" stationCode="AQU" tensor:MTChanOffset="0" tensor:MTChanWaveformFit="0.93" tensor:MTChanWeight="0.554614"/>
        <waveformID channelCode="BHZ" locationCode="00" networkCode="II" stationCode="ARU" tensor:MTChanOffset="0" tensor:MTChanWaveformFit="-0.46" tensor:MTChanWeight="4.27906"/>
        <waveformID channelCode="BHZ" locationCode="00" networkCode="IC" stationCode="BJT" tensor:MTChanOffset="0" tensor:MTChanWaveformFit="0.96" tensor:MTChanWeight="0.137321"/>
        <waveformID channelCode="BHE" locationCode="--" networkCode="MN" stationCode="BNI" tensor:MTChanOffset="0" tensor:MTChanWaveformFit="0.12" tensor:MTChanWeight="0.038621"/>
        <waveformID channelCode="BHN" locationCode="--" networkCode="MN" stationCode="BNI" tensor:MTChanOffset="0" tensor:MTChanWaveformFit="0.18" tensor:MTChanWeight="0.023773"/>
        <waveformID channelCode="BHZ" locationCode="--" networkCode="MN" stationCode="BNI" tensor:MTChanOffset="0" tensor:MTChanWaveformFit="0.87" tensor:MTChanWeight="0.759722"/>
        <waveformID channelCode="BHZ" locationCode="00" networkCode="IU" stationCode="CASY" tensor:MTChanOffset="0" tensor:MTChanWaveformFit="0.8" tensor:MTChanWeight="1.38762"/>
        <waveformID channelCode="BHZ" locationCode="00" networkCode="IU" stationCode="CTAO" tensor:MTChanOffset="0" tensor:MTChanWaveformFit="1" tensor:MTChanWeight="0.220909"/>
        <waveformID channelCode="BHZ" locationCode="--" networkCode="GE" stationCode="DSB" tensor:MTChanOffset="0" tensor:MTChanWaveformFit="0.39" tensor:MTChanWeight="1.07242"/>
        <waveformID channelCode="BHZ" locationCode="00" networkCode="IC" stationCode="ENH" tensor:MTChanOffset="0" tensor:MTChanWaveformFit="0.84" tensor:MTChanWeight="0.05781"/>
        <waveformID channelCode="BH1" locationCode="00" networkCode="II" stationCode="ESK" tensor:MTChanOffset="0" tensor:MTChanWaveformFit="0.45" tensor:MTChanWeight="0.147436"/>
        <waveformID channelCode="BH2" locationCode="00" networkCode="II" stationCode="ESK" tensor:MTChanOffset="0" tensor:MTChanWaveformFit="0.43" tensor:MTChanWeight="0.471652"/>
        <waveformID channelCode="BHZ" locationCode="00" networkCode="II" stationCode="ESK" tensor:MTChanOffset="0" tensor:MTChanWaveformFit="0.6" tensor:MTChanWeight="5.87403"/>
        <waveformID channelCode="BHZ" locationCode="00" networkCode="II" stationCode="FFC" tensor:MTChanOffset="0" tensor:MTChanWaveformFit="0.98" tensor:MTChanWeight="1.16174"/>
        <waveformID channelCode="BH1" locationCode="10" networkCode="II" stationCode="FFC" tensor:MTChanOffset="0" tensor:MTChanWaveformFit="0.48" tensor:MTChanWeight="0.649958"/>
        <waveformID channelCode="BH2" locationCode="10" networkCode="II" stationCode="FFC" tensor:MTChanOffset="0" tensor:MTChanWaveformFit="-0.06" tensor:MTChanWeight="0.139325"/>
        <waveformID channelCode="BHE" locationCode="--" networkCode="CI" stationCode="GSC" tensor:MTChanOffset="0" tensor:MTChanWaveformFit="0.38" tensor:MTChanWeight="0.173182"/>
        <waveformID channelCode="BHN" locationCode="--" networkCode="CI" stationCode="GSC" tensor:MTChanOffset="0" tensor:MTChanWaveformFit="-0.01" tensor:MTChanWeight="0.52506"/>
        <waveformID channelCode="BHZ" locationCode="--" networkCode="CI" stationCode="GSC" tensor:MTChanOffset="0" tensor:MTChanWaveformFit="0.93" tensor:MTChanWeight="1.02115"/>
        <waveformID channelCode="BHZ" locationCode="00" networkCode="IU" stationCode="GUMO" tensor:MTChanOffset="0" tensor:MTChanWaveformFit="0.92" tensor:MTChanWeight="0.532749"/>
        <waveformID channelCode="BH1" locationCode="10" networkCode="IU" stationCode="GUMO" tensor:MTChanOffset="0" tensor:MTChanWaveformFit="0.78" tensor:MTChanWeight="0.084649"/>
        <waveformID channelCode="BH2" locationCode="10" networkCode="IU" stationCode="GUMO" tensor:MTChanOffset="0" tensor:MTChanWaveformFit="0.77" tensor:MTChanWeight="0.608562"/>
        <waveformID channelCode="BHZ" locationCode="00" networkCode="IC" stationCode="HIA" tensor:MTChanOffset="0" tensor:MTChanWaveformFit="0.91" tensor:MTChanWeight="0.145584"/>
        <waveformID channelCode="BHZ" locationCode="00" networkCode="IU" stationCode="INCN" tensor:MTChanOffset="0" tensor:MTChanWaveformFit="0.68" tensor:MTChanWeight="0.152695"/>
        <waveformID channelCode="BH2" locationCode="10" networkCode="IU" stationCode="INCN" tensor:MTChanOffset="0" tensor:MTChanWaveformFit="0.85" tensor:MTChanWeight="0.044668"/>
        <waveformID channelCode="BHZ" locationCode="--" networkCode="CI" stationCode="ISA" tensor:MTChanOffset="0" tensor:MTChanWaveformFit="0.91" tensor:MTChanWeight="1.10967"/>
        <waveformID channelCode="BH1" locationCode="00" networkCode="IU" stationCode="KBS" tensor:MTChanOffset="0" tensor:MTChanWaveformFit="0.41" tensor:MTChanWeight="0.20172"/>
        <waveformID channelCode="BH2" locationCode="00" networkCode="IU" stationCode="KBS" tensor:MTChanOffset="0" tensor:MTChanWaveformFit="0.76" tensor:MTChanWeight="1.57032"/>
        <waveformID channelCode="BHZ" locationCode="00" networkCode="IU" stationCode="KBS" tensor:MTChanOffset="0" tensor:MTChanWaveformFit="0.41" tensor:MTChanWeight="1.65514"/>
        <waveformID channelCode="BHZ" locationCode="00" networkCode="IU" stationCode="KEV" tensor:MTChanOffset="0" tensor:MTChanWaveformFit="0.17" tensor:MTChanWeight="4.39273"/>
        <waveformID channelCode="BHZ" locationCode="00" networkCode="IU" stationCode="KIP" tensor:MTChanOffset="0" tensor:MTChanWaveformFit="0.52" tensor:MTChanWeight="9.06147"/>
        <waveformID channelCode="BHZ" locationCode="00" networkCode="II" stationCode="KIV" tensor:MTChanOffset="0" tensor:MTChanWaveformFit="0.85" tensor:MTChanWeight="1.20588"/>
        <waveformID channelCode="BHZ" locationCode="00" networkCode="IU" stationCode="KMBO" tensor:MTChanOffset="0" tensor:MTChanWaveformFit="0.92" tensor:MTChanWeight="0.349938"/>
        <waveformID channelCode="BH1" locationCode="00" networkCode="II" stationCode="KURK" tensor:MTChanOffset="0" tensor:MTChanWaveformFit="0.45" tensor:MTChanWeight="0.336934"/>
        <waveformID channelCode="BH2" locationCode="00" networkCode="II" stationCode="KURK" tensor:MTChanOffset="0" tensor:MTChanWaveformFit="0.97" tensor:MTChanWeight="0.053912"/>
        <waveformID channelCode="BHZ" locationCode="00" networkCode="II" stationCode="KURK" tensor:MTChanOffset="0" tensor:MTChanWaveformFit="0.48" tensor:MTChanWeight="0.165707"/>
        <waveformID channelCode="BH1" locationCode="00" networkCode="IU" stationCode="LVC" tensor:MTChanOffset="0" tensor:MTChanWaveformFit="0.68" tensor:MTChanWeight="0.42269"/>
        <waveformID channelCode="BH2" locationCode="00" networkCode="IU" stationCode="LVC" tensor:MTChanOffset="0" tensor:MTChanWaveformFit="0.96" tensor:MTChanWeight="0.356895"/>
        <waveformID channelCode="BHZ" locationCode="00" networkCode="IU" stationCode="LVC" tensor:MTChanOffset="0" tensor:MTChanWaveformFit="0.86" tensor:MTChanWeight="2.87809"/>
        <waveformID channelCode="BHZ" locationCode="00" networkCode="IU" stationCode="MAJO" tensor:MTChanOffset="0" tensor:MTChanWaveformFit="0.85" tensor:MTChanWeight="0.897451"/>
        <waveformID channelCode="BHZ" locationCode="00" networkCode="IC" stationCode="MDJ" tensor:MTChanOffset="0" tensor:MTChanWaveformFit="0.98" tensor:MTChanWeight="0.293667"/>
        <waveformID channelCode="BHZ" locationCode="00" networkCode="II" stationCode="NNA" tensor:MTChanOffset="0" tensor:MTChanWaveformFit="-0.39" tensor:MTChanWeight="9.57438"/>
        <waveformID channelCode="BHZ" locationCode="00" networkCode="IU" stationCode="PAB" tensor:MTChanOffset="0" tensor:MTChanWaveformFit="0.93" tensor:MTChanWeight="0.83224"/>
        <waveformID channelCode="BH1" locationCode="10" networkCode="IU" stationCode="PAB" tensor:MTChanOffset="0" tensor:MTChanWaveformFit="0.7" tensor:MTChanWeight="0.2695"/>
        <waveformID channelCode="BH2" locationCode="10" networkCode="IU" stationCode="PAB" tensor:MTChanOffset="0" tensor:MTChanWaveformFit="0.89" tensor:MTChanWeight="0.492514"/>
        <waveformID channelCode="BHE" locationCode="00" networkCode="IU" stationCode="PET" tensor:MTChanOffset="0" tensor:MTChanWaveformFit="0.81" tensor:MTChanWeight="2.37808"/>
        <waveformID channelCode="BHN" locationCode="00" networkCode="IU" stationCode="PET" tensor:MTChanOffset="0" tensor:MTChanWaveformFit="0.78" tensor:MTChanWeight="2.25924"/>
        <waveformID channelCode="BHZ" locationCode="00" networkCode="IU" stationCode="PET" tensor:MTChanOffset="0" tensor:MTChanWaveformFit="0.94" tensor:MTChanWeight="1.00596"/>
        <waveformID channelCode="BHZ" locationCode="00" networkCode="II" stationCode="PFO" tensor:MTChanOffset="0" tensor:MTChanWaveformFit="0.7" tensor:MTChanWeight="1.03943"/>
        <waveformID channelCode="BH1" locationCode="10" networkCode="II" stationCode="PFO" tensor:MTChanOffset="0" tensor:MTChanWaveformFit="0.7" tensor:MTChanWeight="0.531531"/>
        <waveformID channelCode="BH2" locationCode="10" networkCode="II" stationCode="PFO" tensor:MTChanOffset="0" tensor:MTChanWaveformFit="0.44" tensor:MTChanWeight="0.743337"/>
        <waveformID channelCode="BHZ" locationCode="00" networkCode="IU" stationCode="PMG" tensor:MTChanOffset="0" tensor:MTChanWaveformFit="0.79" tensor:MTChanWeight="0.120677"/>
        <waveformID channelCode="BHZ" locationCode="00" networkCode="II" stationCode="RPN" tensor:MTChanOffset="0" tensor:MTChanWaveformFit="0.94" tensor:MTChanWeight="1.41599"/>
        <waveformID channelCode="BHZ" locationCode="00" networkCode="IU" stationCode="SDV" tensor:MTChanOffset="0" tensor:MTChanWaveformFit="0.95" tensor:MTChanWeight="1.11162"/>
        <waveformID channelCode="BHZ" locationCode="00" networkCode="IU" stationCode="SFJD" tensor:MTChanOffset="0" tensor:MTChanWaveformFit="0.51" tensor:MTChanWeight="4.38316"/>
        <waveformID channelCode="BH1" locationCode="10" networkCode="IU" stationCode="SFJD" tensor:MTChanOffset="0" tensor:MTChanWaveformFit="0.02" tensor:MTChanWeight="0.213708"/>
        <waveformID channelCode="BH2" locationCode="10" networkCode="IU" stationCode="SFJD" tensor:MTChanOffset="0" tensor:MTChanWaveformFit="0.64" tensor:MTChanWeight="0.066364"/>
        <waveformID channelCode="BHZ" locationCode="00" networkCode="II" stationCode="SHEL" tensor:MTChanOffset="0" tensor:MTChanWaveformFit="0.5" tensor:MTChanWeight="0.757571"/>
        <waveformID channelCode="BH1" locationCode="10" networkCode="II" stationCode="SHEL" tensor:MTChanOffset="0" tensor:MTChanWaveformFit="0.45" tensor:MTChanWeight="0.009869"/>
        <waveformID channelCode="BH2" locationCode="10" networkCode="II" stationCode="SHEL" tensor:MTChanOffset="0" tensor:MTChanWaveformFit="-0.5" tensor:MTChanWeight="0.019745"/>
        <waveformID channelCode="BHZ" locationCode="00" networkCode="IU" stationCode="SJG" tensor:MTChanOffset="0" tensor:MTChanWaveformFit="0.73" tensor:MTChanWeight="1.76204"/>
        <waveformID channelCode="BHZ" locationCode="--" networkCode="CI" stationCode="SNCC" tensor:MTChanOffset="0" tensor:MTChanWaveformFit="0.9" tensor:MTChanWeight="1.66472"/>
        <waveformID channelCode="BHZ" locationCode="00" networkCode="IC" stationCode="SSE" tensor:MTChanOffset="0" tensor:MTChanWaveformFit="0.63" tensor:MTChanWeight="0.112893"/>
        <waveformID channelCode="BHZ" locationCode="00" networkCode="II" stationCode="SUR" tensor:MTChanOffset="0" tensor:MTChanWaveformFit="0.75" tensor:MTChanWeight="5.64932"/>
        <waveformID channelCode="BHZ" locationCode="00" networkCode="II" stationCode="TAU" tensor:MTChanOffset="0" tensor:MTChanWaveformFit="0.88" tensor:MTChanWeight="1.07093"/>
        <waveformID channelCode="BHZ" locationCode="00" networkCode="IU" stationCode="TEIG" tensor:MTChanOffset="0" tensor:MTChanWaveformFit="0.79" tensor:MTChanWeight="0.852501"/>
        <waveformID channelCode="BHE" locationCode="00" networkCode="IU" stationCode="TIXI" tensor:MTChanOffset="0" tensor:MTChanWaveformFit="0.39" tensor:MTChanWeight="2.71322"/>
        <waveformID channelCode="BHN" locationCode="00" networkCode="IU" stationCode="TIXI" tensor:MTChanOffset="0" tensor:MTChanWaveformFit="0.55" tensor:MTChanWeight="0.45366"/>
        <waveformID channelCode="BHZ" locationCode="00" networkCode="IU" stationCode="TIXI" tensor:MTChanOffset="0" tensor:MTChanWaveformFit="0.76" tensor:MTChanWeight="0.611594"/>
        <waveformID channelCode="BHZ" locationCode="00" networkCode="II" stationCode="TLY" tensor:MTChanOffset="0" tensor:MTChanWaveformFit="0.94" tensor:MTChanWeight="0.185989"/>
        <waveformID channelCode="BHZ" locationCode="00" networkCode="IU" stationCode="ULN" tensor:MTChanOffset="0" tensor:MTChanWaveformFit="0.91" tensor:MTChanWeight="0.124054"/>
        <waveformID channelCode="BHZ" locationCode="00" networkCode="IC" stationCode="WMQ" tensor:MTChanOffset="0" tensor:MTChanWaveformFit="0.78" tensor:MTChanWeight="0.349015"/>
        <waveformID channelCode="BHZ" locationCode="00" networkCode="II" stationCode="WRAB" tensor:MTChanOffset="0" tensor:MTChanWaveformFit="0.67" tensor:MTChanWeight="0.12478"/>
        <waveformID channelCode="BHZ" locationCode="00" networkCode="IU" stationCode="YSS" tensor:MTChanOffset="0" tensor:MTChanWaveformFit="0.91" tensor:MTChanWeight="0.334255"/>
        <waveformID channelCode="BH1" locationCode="00" networkCode="IU" stationCode="KIP" tensor:MTChanOffset="0" tensor:MTChanWaveformFit="-0.11" tensor:MTChanWeight="0.468436"/>
        <waveformID channelCode="BH2" locationCode="00" networkCode="IU" stationCode="KIP" tensor:MTChanOffset="0" tensor:MTChanWaveformFit="0.78" tensor:MTChanWeight="0.911133"/>
        <waveformID channelCode="BH1" locationCode="00" networkCode="II" stationCode="TAU" tensor:MTChanOffset="0" tensor:MTChanWaveformFit="0.6" tensor:MTChanWeight="0.186701"/>
        <waveformID channelCode="BH2" locationCode="00" networkCode="II" stationCode="TAU" tensor:MTChanOffset="0" tensor:MTChanWaveformFit="0.93" tensor:MTChanWeight="0.286564"/>
        <waveformID channelCode="BH1" locationCode="00" networkCode="II" stationCode="WRAB" tensor:MTChanOffset="0" tensor:MTChanWaveformFit="0.64" tensor:MTChanWeight="0.107373"/>
        <waveformID channelCode="BH2" locationCode="00" networkCode="II" stationCode="WRAB" tensor:MTChanOffset="0" tensor:MTChanWaveformFit="0.82" tensor:MTChanWeight="0.040682"/>
        <waveformID channelCode="BH1" locationCode="00" networkCode="II" stationCode="ASCN" tensor:MTChanOffset="0" tensor:MTChanWaveformFit="0.22" tensor:MTChanWeight="0.020099"/>
        <waveformID channelCode="BH2" locationCode="00" networkCode="II" stationCode="ASCN" tensor:MTChanOffset="0" tensor:MTChanWaveformFit="0.11" tensor:MTChanWeight="0.132953"/>
        <waveformID channelCode="LHZ" locationCode="00" networkCode="US" stationCode="BLA" tensor:MTChanOffset="0" tensor:MTChanWaveformFit="0.54" tensor:MTChanWeight="0.557138"/>
        <waveformID channelCode="LHZ" locationCode="00" networkCode="US" stationCode="DUG" tensor:MTChanOffset="0" tensor:MTChanWaveformFit="0.88" tensor:MTChanWeight="0.580178"/>
        <waveformID channelCode="LHZ" locationCode="00" networkCode="US" stationCode="NEW" tensor:MTChanOffset="0" tensor:MTChanWaveformFit="0.88" tensor:MTChanWeight="0.639221"/>
        <waveformID channelCode="LH1" locationCode="10" networkCode="US" stationCode="NEW" tensor:MTChanOffset="0" tensor:MTChanWaveformFit="0.81" tensor:MTChanWeight="1.1043"/>
