<?xml version="1.0" encoding="UTF-8" standalone="no" ?>
<q:quakeml xmlns:q="https://quakeml.org/xmlns/quakeml/1.2" xmlns="https://quakeml.org/xmlns/bed/1.2" xmlns:catalog="https://anss.org/xmlns/catalog/0.1" xmlns:tensor="https://anss.org/xmlns/tensor/0.1">

  <eventParameters xmlns="https://quakeml.org/xmlns/bed/1.2" publicID="quakeml:us.anss.org/eventparameters/10004u1y/1456926113">
    <comment>
      <text>HYDRA - us</text>
    </comment>
    <event catalog:dataid="us10004u1y" catalog:datasource="us" catalog:eventid="10004u1y" catalog:eventsource="us" publicID="quakeml:us.anss.org/event/10004u1y">
      <description>
        <text>SOUTHWEST OF SUMATRA, INDONESIA</text>
        <type>Flinn-Engdahl region</type>
      </description>
      <description>
        <text>659 km (409 miles) SW of Muara Siberut, Indonesia (pop 0)
804 km (499 miles) WSW of Padang, Indonesia (pop 840352)
804 km (499 miles) SW of Pariaman, Indonesia (pop 92183)
842 km (523 miles) WSW of Solok, Indonesia (pop 48372)
848 km (526 miles) NNW of West Island, Cocos Islands (pop 120)
</text>
        <type>nearest cities</type>
      </description>
      <focalMechanism catalog:dataid="us_10004u1y_mww" catalog:datasource="us" publicID="quakeml:us.anss.org/focalmechanism/10004u1y/mww">
        <momentTensor publicID="quakeml:us.anss.org/momenttensor/10004u1y/mww">
          <derivedOriginID>quakeml:us.anss.org/origin/10004u1y/mww</derivedOriginID>
          <momentMagnitudeID>quakeml:us.anss.org/magnitude/10004u1y/mww</momentMagnitudeID>
          <scalarMoment>
            <value>5.85e+020</value>
          </scalarMoment>
          <tensor>
            <Mrr>
              <value>3.25e+019</value>
            </Mrr>
            <Mtt>
              <value>-1.012e+020</value>
            </Mtt>
            <Mpp>
              <value>6.88e+019</value>
            </Mpp>
            <Mrt>
              <value>-1.007e+020</value>
            </Mrt>
            <Mrp>
              <value>5.99e+019</value>
            </Mrp>
            <Mtp>
              <value>-5.66e+020</value>
            </Mtp>
          </tensor>
          <doubleCouple>0.9591</doubleCouple>
          <clvd>0.0409</clvd>
          <sourceTimeFunction>
            <type>triangle</type>
            <duration>36</duration>
            <riseTime>18</riseTime>
            <decayTime>18</decayTime>
          </sourceTimeFunction>
        </momentTensor>
        <triggeringOriginID>quakeml:us.anss.org/origin/10004u1y</triggeringOriginID>
        <nodalPlanes>
          <nodalPlane1>
            <strike>
              <value>274</value>
            </strike>
            <dip>
              <value>84</value>
            </dip>
            <rake>
              <value>169</value>
            </rake>
          </nodalPlane1>
          <nodalPlane2>
            <strike>
              <value>5</value>
            </strike>
            <dip>
              <value>79</value>
            </dip>
            <rake>
              <value>6</value>
            </rake>
          </nodalPlane2>
        </nodalPlanes>
        <principalAxes>
          <tAxis>
            <azimuth>
              <value>229</value>
            </azimuth>
            <plunge>
              <value>12</value>
            </plunge>
            <length>
              <value>5.78757e+020</value>
            </length>
          </tAxis>
          <pAxis>
            <azimuth>
              <value>320</value>
            </azimuth>
            <plunge>
              <value>3</value>
            </plunge>
            <length>
              <value>-5.90843e+020</value>
            </length>
          </pAxis>
          <nAxis>
            <azimuth>
              <value>66</value>
            </azimuth>
            <plunge>
              <value>78</value>
            </plunge>
            <length>
              <value>1.2086e+019</value>
            </length>
          </nAxis>
        </principalAxes>
        <evaluationMode>manual</evaluationMode>
        <evaluationStatus>preliminary</evaluationStatus>
        <creationInfo>
          <agencyID>us</agencyID>
          <agencyURI>smi:anss.org/metadata/agencyid/us</agencyURI>
          <creationTime>2016-03-02T13:32:25Z</creationTime>
        </creationInfo>
        <tensor:waveformFit xmlns="">0.00</tensor:waveformFit>
      </focalMechanism>
      <focalMechanism catalog:dataid="us_10004u1y_mwb" catalog:datasource="us" publicID="quakeml:us.anss.org/focalmechanism/10004u1y/mwb">
        <waveformID channelCode="LHZ" locationCode="00" networkCode="IU" stationCode="ADK" tensor:MTChanOffset="-6" tensor:MTChanWaveformFit="0.65" tensor:MTChanWeight="1"/>
        <waveformID channelCode="LH2" locationCode="00" networkCode="IU" stationCode="AFI" tensor:MTChanOffset="-17" tensor:MTChanWaveformFit="0.91" tensor:MTChanWeight="0.19245"/>
        <waveformID channelCode="BH2" locationCode="00" networkCode="II" stationCode="ARU" tensor:MTChanOffset="-3" tensor:MTChanWaveformFit="0.73" tensor:MTChanWeight="0.19245"/>
        <waveformID channelCode="LHZ" locationCode="00" networkCode="II" stationCode="ARU" tensor:MTChanOffset="-6" tensor:MTChanWaveformFit="0.84" tensor:MTChanWeight="1"/>
        <waveformID channelCode="BHE" locationCode="00" networkCode="GT" stationCode="BOSA" tensor:MTChanOffset="-9" tensor:MTChanWaveformFit="0.62" tensor:MTChanWeight="0.19245"/>
        <waveformID channelCode="BHZ" locationCode="00" networkCode="GT" stationCode="BOSA" tensor:MTChanOffset="-6" tensor:MTChanWaveformFit="0.06" tensor:MTChanWeight="1"/>
        <waveformID channelCode="BH2" locationCode="00" networkCode="II" stationCode="BRVK" tensor:MTChanOffset="-7" tensor:MTChanWaveformFit="0.78" tensor:MTChanWeight="0.19245"/>
        <waveformID channelCode="LHZ" locationCode="00" networkCode="II" stationCode="BRVK" tensor:MTChanOffset="-6" tensor:MTChanWaveformFit="0.81" tensor:MTChanWeight="1"/>
        <waveformID channelCode="LHZ" locationCode="00" networkCode="IU" stationCode="DAV" tensor:MTChanOffset="-4" tensor:MTChanWaveformFit="0.69" tensor:MTChanWeight="1"/>
        <waveformID channelCode="LHZ" locationCode="00" networkCode="IU" stationCode="GUMO" tensor:MTChanOffset="-6" tensor:MTChanWaveformFit="0.68" tensor:MTChanWeight="1"/>
        <waveformID channelCode="LH2" locationCode="00" networkCode="IU" stationCode="HNR" tensor:MTChanOffset="-10" tensor:MTChanWaveformFit="0.86" tensor:MTChanWeight="0.19245"/>
        <waveformID channelCode="LH2" locationCode="00" networkCode="IU" stationCode="INCN" tensor:MTChanOffset="-9" tensor:MTChanWaveformFit="0.55" tensor:MTChanWeight="0.19245"/>
        <waveformID channelCode="LHZ" locationCode="00" networkCode="IU" stationCode="INCN" tensor:MTChanOffset="-6" tensor:MTChanWaveformFit="0.71" tensor:MTChanWeight="1"/>
        <waveformID channelCode="LH2" locationCode="00" networkCode="IU" stationCode="KBS" tensor:MTChanOffset="-1" tensor:MTChanWaveformFit="0.87" tensor:MTChanWeight="0.19245"/>
        <waveformID channelCode="LHZ" locationCode="00" networkCode="IU" stationCode="KBS" tensor:MTChanOffset="-6" tensor:MTChanWaveformFit="0.69" tensor:MTChanWeight="1"/>
        <waveformID channelCode="LH2" locationCode="00" networkCode="IU" stationCode="KEV" tensor:MTChanOffset="-3" tensor:MTChanWaveformFit="0.92" tensor:MTChanWeight="0.19245"/>
        <waveformID channelCode="LHZ" locationCode="00" networkCode="IU" stationCode="KEV" tensor:MTChanOffset="-6" tensor:MTChanWaveformFit="0.81" tensor:MTChanWeight="1"/>
        <waveformID channelCode="BH2" locationCode="00" networkCode="II" stationCode="KIV" tensor:MTChanOffset="-1" tensor:MTChanWaveformFit="-0.12" tensor:MTChanWeight="0.19245"/>
        <waveformID channelCode="LHZ" locationCode="00" networkCode="II" stationCode="KIV" tensor:MTChanOffset="-6" tensor:MTChanWaveformFit="0.63" tensor:MTChanWeight="1"/>
        <waveformID channelCode="LH2" locationCode="00" networkCode="IU" stationCode="KONO" tensor:MTChanOffset="-3" tensor:MTChanWaveformFit="0.88" tensor:MTChanWeight="0.19245"/>
        <waveformID channelCode="LHZ" locationCode="00" networkCode="IU" stationCode="KONO" tensor:MTChanOffset="-6" tensor:MTChanWaveformFit="0.62" tensor:MTChanWeight="1"/>
        <waveformID channelCode="BHE" locationCode="00" networkCode="GT" stationCode="LBTB" tensor:MTChanOffset="-11" tensor:MTChanWaveformFit="0.67" tensor:MTChanWeight="0.19245"/>
        <waveformID channelCode="BHZ" locationCode="00" networkCode="GT" stationCode="LBTB" tensor:MTChanOffset="-6" tensor:MTChanWaveformFit="0.16" tensor:MTChanWeight="1"/>
        <waveformID channelCode="LH2" locationCode="00" networkCode="IU" stationCode="MA2" tensor:MTChanOffset="-2" tensor:MTChanWaveformFit="0.89" tensor:MTChanWeight="0.19245"/>
        <waveformID channelCode="LHZ" locationCode="00" networkCode="IU" stationCode="MA2" tensor:MTChanOffset="-6" tensor:MTChanWaveformFit="0.36" tensor:MTChanWeight="1"/>
        <waveformID channelCode="LH2" locationCode="00" networkCode="IU" stationCode="MAJO" tensor:MTChanOffset="-6" tensor:MTChanWaveformFit="0.58" tensor:MTChanWeight="0.19245"/>
        <waveformID channelCode="LHZ" locationCode="00" networkCode="IU" stationCode="MAJO" tensor:MTChanOffset="-6" tensor:MTChanWaveformFit="0.6" tensor:MTChanWeight="1"/>
        <waveformID channelCode="BHE" locationCode="--" networkCode="GE" stationCode="MORC" tensor:MTChanOffset="-4" tensor:MTChanWaveformFit="0.67" tensor:MTChanWeight="0.19245"/>
        <waveformID channelCode="BHZ" locationCode="--" networkCode="GE" stationCode="MORC" tensor:MTChanOffset="-6" tensor:MTChanWaveformFit="0.58" tensor:MTChanWeight="1"/>
        <waveformID channelCode="LH2" locationCode="00" networkCode="II" stationCode="NIL" tensor:MTChanOffset="-7" tensor:MTChanWaveformFit="0.56" tensor:MTChanWeight="0.19245"/>
        <waveformID channelCode="BH2" locationCode="00" networkCode="II" stationCode="OBN" tensor:MTChanOffset="-1" tensor:MTChanWaveformFit="0.85" tensor:MTChanWeight="0.19245"/>
        <waveformID channelCode="LHZ" locationCode="00" networkCode="II" stationCode="OBN" tensor:MTChanOffset="-6" tensor:MTChanWaveformFit="0.78" tensor:MTChanWeight="1"/>
        <waveformID channelCode="LH2" locationCode="00" networkCode="IU" stationCode="PET" tensor:MTChanOffset="4" tensor:MTChanWaveformFit="0.74" tensor:MTChanWeight="0.19245"/>
        <waveformID channelCode="LHZ" locationCode="00" networkCode="IU" stationCode="PET" tensor:MTChanOffset="-6" tensor:MTChanWaveformFit="0.71" tensor:MTChanWeight="1"/>
        <waveformID channelCode="LH2" locationCode="00" networkCode="IU" stationCode="PMG" tensor:MTChanOffset="-9" tensor:MTChanWaveformFit="0.54" tensor:MTChanWeight="0.19245"/>
        <waveformID channelCode="LHE" locationCode="--" networkCode="GE" stationCode="PSZ" tensor:MTChanOffset="-2" tensor:MTChanWaveformFit="0.67" tensor:MTChanWeight="0.19245"/>
        <waveformID channelCode="LHZ" locationCode="--" networkCode="GE" stationCode="PSZ" tensor:MTChanOffset="-6" tensor:MTChanWaveformFit="0.63" tensor:MTChanWeight="1"/>
        <waveformID channelCode="LH2" locationCode="00" networkCode="IU" stationCode="SNZO" tensor:MTChanOffset="-2" tensor:MTChanWaveformFit="0.48" tensor:MTChanWeight="0.19245"/>
        <waveformID channelCode="LHZ" locationCode="00" networkCode="IU" stationCode="SNZO" tensor:MTChanOffset="-6" tensor:MTChanWaveformFit="0.74" tensor:MTChanWeight="1"/>
        <waveformID channelCode="BH2" locationCode="00" networkCode="II" stationCode="SUR" tensor:MTChanOffset="-14" tensor:MTChanWaveformFit="0.51" tensor:MTChanWeight="0.19245"/>
        <waveformID channelCode="LHZ" locationCode="00" networkCode="II" stationCode="SUR" tensor:MTChanOffset="-6" tensor:MTChanWaveformFit="0.48" tensor:MTChanWeight="1"/>
        <waveformID channelCode="LH2" locationCode="00" networkCode="IU" stationCode="TATO" tensor:MTChanOffset="-10" tensor:MTChanWaveformFit="0.66" tensor:MTChanWeight="0.19245"/>
        <waveformID channelCode="BH2" locationCode="00" networkCode="II" stationCode="TAU" tensor:MTChanOffset="-2" tensor:MTChanWaveformFit="0.48" tensor:MTChanWeight="0.19245"/>
        <waveformID channelCode="LHZ" locationCode="00" networkCode="II" stationCode="TAU" tensor:MTChanOffset="-6" tensor:MTChanWaveformFit="0.46" tensor:MTChanWeight="1"/>
        <waveformID channelCode="LH2" locationCode="00" networkCode="IU" stationCode="TSUM" tensor:MTChanOffset="-12" tensor:MTChanWaveformFit="0.84" tensor:MTChanWeight="0.19245"/>
        <waveformID channelCode="LHZ" locationCode="00" networkCode="IU" stationCode="TSUM" tensor:MTChanOffset="-6" tensor:MTChanWaveformFit="0.59" tensor:MTChanWeight="1"/>
        <waveformID channelCode="LH2" locationCode="10" networkCode="IU" stationCode="ULN" tensor:MTChanOffset="-9" tensor:MTChanWaveformFit="0.92" tensor:MTChanWeight="0.19245"/>
        <waveformID channelCode="LHZ" locationCode="--" networkCode="GE" stationCode="WLF" tensor:MTChanOffset="-6" tensor:MTChanWaveformFit="0.66" tensor:MTChanWeight="1"/>
        <waveformID channelCode="BH2" locationCode="00" networkCode="II" stationCode="WRAB" tensor:MTChanOffset="3" tensor:MTChanWaveformFit="0.64" tensor:MTChanWeight="0.19245"/>
        <waveformID channelCode="BHZ" locationCode="10" networkCode="II" stationCode="WRAB" tensor:MTChanOffset="-6" tensor:MTChanWaveformFit="0.52" tensor:MTChanWeight="1"/>
        <waveformID channelCode="LH2" locationCode="00" networkCode="IU" stationCode="YAK" tensor:MTChanOffset="0" tensor:MTChanWaveformFit="0.82" tensor:MTChanWeight="0.19245"/>
        <waveformID channelCode="LH2" locationCode="00" networkCode="IU" stationCode="YSS" tensor:MTChanOffset="-5" tensor:MTChanWaveformFit="0.79" tensor:MTChanWeight="0.19245"/>
        <waveformID channelCode="LHZ" locationCode="00" networkCode="IU" stationCode="YSS" tensor:MTChanOffset="-6" tensor:MTChanWaveformFit="0.68" tensor:MTChanWeight="1"/>
        <momentTensor publicID="quakeml:us.anss.org/momenttensor/10004u1y/mwb">
          <derivedOriginID>quakeml:us.anss.org/origin/10004u1y/mwb</derivedOriginID>
          <momentMagnitudeID>quakeml:us.anss.org/magnitude/10004u1y/mwb</momentMagnitudeID>
          <scalarMoment>
            <value>5.56e+020</value>
          </scalarMoment>
          <tensor>
            <Mrr>
              <value>1.198e+019</value>
            </Mrr>
            <Mtt>
              <value>-9.254e+019</value>
            </Mtt>
            <Mpp>
              <value>8.057e+019</value>
            </Mpp>
            <Mrt>
              <value>6.94e+018</value>
            </Mrt>
            <Mrp>
              <value>4.705e+019</value>
            </Mrp>
            <Mtp>
              <value>-5.4708e+020</value>
            </Mtp>
          </tensor>
          <doubleCouple>0.9559</doubleCouple>
          <clvd>0.0441</clvd>
        </momentTensor>
        <triggeringOriginID>quakeml:us.anss.org/origin/10004u1y</triggeringOriginID>
        <nodalPlanes>
          <nodalPlane1>
            <strike>
              <value>184.49</value>
            </strike>
            <dip>
              <value>89.83</value>
            </dip>
            <rake>
              <value>-4.89</value>
            </rake>
          </nodalPlane1>
          <nodalPlane2>
            <strike>
              <value>274.51</value>
            </strike>
            <dip>
              <value>85.11</value>
            </dip>
            <rake>
              <value>-179.83</value>
            </rake>
          </nodalPlane2>
        </nodalPlanes>
        <principalAxes>
          <tAxis>
            <azimuth>
              <value>230</value>
            </azimuth>
            <plunge>
              <value>3</value>
            </plunge>
            <length>
              <value>5.49718e+020</value>
            </length>
          </tAxis>
          <pAxis>
            <azimuth>
              <value>139</value>
            </azimuth>
            <plunge>
              <value>4</value>
            </plunge>
            <length>
              <value>-5.62114e+020</value>
            </length>
          </pAxis>
          <nAxis>
            <azimuth>
              <value>2</value>
            </azimuth>
            <plunge>
              <value>85</value>
            </plunge>
            <length>
              <value>1.23952e+019</value>
            </length>
          </nAxis>
        </principalAxes>
        <evaluationMode>manual</evaluationMode>
        <evaluationStatus>preliminary</evaluationStatus>
        <creationInfo>
          <agencyID>us</agencyID>
          <agencyURI>smi:anss.org/metadata/agencyid/us</agencyURI>
          <creationTime>2016-03-02T13:25:47Z</creationTime>
        </creationInfo>
        <tensor:waveformFit xmlns="">0.61</tensor:waveformFit>
      </focalMechanism>
      <magnitude catalog:dataid="us_10004u1y_mww" catalog:datasource="us" publicID="quakeml:us.anss.org/magnitude/10004u1y/mww">
        <mag>
          <value>7.8</value>
        </mag>
        <type>Mww</type>
        <methodID>smi:us.anss.org/metadata/methodid/magnitude/Mww/1.0</methodID>
        <evaluationMode>manual</evaluationMode>
        <evaluationStatus>preliminary</evaluationStatus>
        <creationInfo>
          <agencyID>us</agencyID>
          <agencyURI>smi:anss.org/metadata/agencyid/us</agencyURI>
          <creationTime>2016-03-02T13:32:25Z</creationTime>
        </creationInfo>
      </magnitude>
      <magnitude catalog:dataid="us_10004u1y_mwb" catalog:datasource="us" publicID="quakeml:us.anss.org/magnitude/10004u1y/mwb">
        <mag>
          <value>7.8</value>
          <uncertainty>0.043</uncertainty>
          <confidenceLevel>90</confidenceLevel>
        </mag>
        <type>Mwb</type>
        <methodID>smi:us.anss.org/metadata/methodid/magnitude/Mwb/1.0</methodID>
        <stationCount>53</stationCount>
        <evaluationMode>manual</evaluationMode>
        <evaluationStatus>preliminary</evaluationStatus>
        <creationInfo>
          <agencyID>us</agencyID>
          <agencyURI>smi:anss.org/metadata/agencyid/us</agencyURI>
          <creationTime>2016-03-02T13:25:47Z</creationTime>
        </creationInfo>
      </magnitude>
      <origin catalog:dataid="us10004u1y" catalog:datasource="us" catalog:eventid="10004u1y" publicID="quakeml:us.anss.org/origin/10004u1y">
        <originUncertainty>
          <horizontalUncertainty>8000</horizontalUncertainty>
          <minHorizontalUncertainty>11800</minHorizontalUncertainty>
          <maxHorizontalUncertainty>12600</maxHorizontalUncertainty>
          <azimuthMaxHorizontalUncertainty>231</azimuthMaxHorizontalUncertainty>
          <confidenceEllipsoid>
            <semiMajorAxisLength>12600</semiMajorAxisLength>
            <semiMinorAxisLength>2700</semiMinorAxisLength>
            <semiIntermediateAxisLength>11800</semiIntermediateAxisLength>
            <majorAxisPlunge>0</majorAxisPlunge>
            <majorAxisAzimuth>231</majorAxisAzimuth>
            <majorAxisRotation>90</majorAxisRotation>
          </confidenceEllipsoid>
          <preferredDescription>confidence ellipsoid</preferredDescription>
          <confidenceLevel>90</confidenceLevel>
        </originUncertainty>
        <arrival publicID="quakeml:us.anss.org/arrival/10004u1y/us_3395_bpid-1000967811">
          <pickID>quakeml:us.anss.org/pick/10004u1y/us_3395_bpid-1000967811</pickID>
          <phase>Pn</phase>
          <azimuth>28.2</azimuth>
          <distance>6.99638</distance>
          <takeoffAngle>
            <value>53.6</value>
          </takeoffAngle>
          <timeResidual>-1.30</timeResidual>
          <timeWeight>0.8700</timeWeight>
          <creationInfo>
            <agencyID>us</agencyID>
            <agencyURI>smi:anss.org/metadata/agencyid/us</agencyURI>
            <author>manual</author>
            <creationTime>2016-03-02T12:55:41Z</creationTime>
          </creationInfo>
        </arrival>
